NORAD_CAT_ID,OBJECT_NAME,OBJECT_TYPE,EPOCH,MEAN_MOTION,ECCENTRICITY,INCLINATION,RA_OF_ASC_NODE,ARG_OF_PERICENTER,MEAN_ANOMALY,BSTAR,MEAN_MOTION_DOT,MEAN_MOTION_DDOT,TLE_LINE0,TLE_LINE1,TLE_LINE2,SEMIMAJOR_AXIS,PERIOD,APOGEE,PERIGEE,DECAYED
55957.0,STARLINK-5884,PAYLOAD,2024-04-06 09:19:09,14.98323622,0.0003097,69.9998,235.2658,268.034,92.0464,-2.3929e-06,-1.22e-06,0.0,0 STARLINK-5884,1 55957U 23037AV  24097.38830015 -.00000122  00000-0 -23929-5 0  9993,2 55957  69.9998 235.2658 0003097 268.0340  92.0464 14.98323622 59612,6950.213,96.107,574.23,569.925,0.0
55957.0,STARLINK-5884,PAYLOAD,2024-04-06 18:55:57,14.9832482,0.0002985,70.0006,234.2579,269.9877,90.094,-6.0865e-05,-8.19e-06,0.0,0 STARLINK-5884,1 55957U 23037AV  24097.78886262 -.00000819  00000-0 -60865-4 0  9994,2 55957  70.0006 234.2579 0002985 269.9877  90.0940 14.98324820 59333,6950.209,96.107,574.149,569.999,0.0
55957.0,STARLINK-5884,PAYLOAD,2024-04-07 09:21:10,14.98323779,0.0002998,70.0011,232.7431,270.1793,89.9023,-1.5292e-05,-2.75e-06,0.0,0 STARLINK-5884,1 55957U 23037AV  24098.38970313 -.00000275  00000-0 -15292-4 0  9992,2 55957  70.0011 232.7431 0002998 270.1793  89.9023 14.98323779 59762,6950.212,96.107,574.161,569.993,0.0
55957.0,STARLINK-5884,PAYLOAD,2024-04-08 09:23:10,14.98328087,0.0003028,70.0021,230.2188,273.1131,86.9681,7.978e-05,8.59e-06,0.0,0 STARLINK-5884,1 55957U 23037AV  24099.39109882  .00000859  00000-0  79780-4 0  9997,2 55957  70.0021 230.2188 0003028 273.1131  86.9681 14.98328087 59910,6950.199,96.107,574.168,569.959,0.0
55957.0,STARLINK-5884,PAYLOAD,2024-04-08 15:47:42,14.98332873,0.0003072,70.0025,229.5462,272.7126,87.3681,0.0001152,1.282e-05,0.0,0 STARLINK-5884,1 55957U 23037AV  24099.65813488  .00001282  00000-0  11520-3 0  9998,2 55957  70.0025 229.5462 0003072 272.7126  87.3681 14.98332873 59618,6950.184,96.107,574.184,569.914,0.0
55957.0,STARLINK-5884,PAYLOAD,2024-04-09 09:25:11,14.98331654,0.0003003,70.0044,227.6971,263.1908,96.891,2.6971e-05,2.29e-06,0.0,0 STARLINK-5884,1 55957U 23037AV  24100.39249709  .00000229  00000-0  26971-4 0  9998,2 55957  70.0044 227.6971 0003003 263.1908  96.8910 14.98331654 60066,6950.188,96.107,574.14,569.966,0.0
55957.0,STARLINK-5884,PAYLOAD,2024-04-10 09:27:13,14.9833055,0.0002945,70.0017,225.1708,267.8091,92.2731,-9.4745e-05,-1.223e-05,0.0,0 STARLINK-5884,1 55957U 23037AV  24101.39390149 -.00001223  00000-0 -94745-4 0  9995,2 55957  70.0017 225.1708 0002945 267.8091  92.2731 14.98330550 60217,6950.191,96.107,574.103,570.009,0.0
55957.0,STARLINK-5884,PAYLOAD,2024-04-10 14:15:37,14.98329983,0.0002915,70.0004,224.6648,270.9879,89.0946,-0.00010312,-1.323e-05,0.0,0 STARLINK-5884,1 55957U 23037AV  24101.59418211 -.00001323  00000-0 -10312-3 0  9996,2 55957  70.0004 224.6648 0002915 270.9879  89.0946 14.98329983 59900,6950.193,96.107,574.084,570.032,0.0
55957.0,STARLINK-5884,PAYLOAD,2024-04-11 12:41:29,14.98331846,0.0003059,70.0,222.3071,269.3707,90.7102,5.9647e-05,6.19e-06,0.0,0 STARLINK-5884,1 55957U 23037AV  24102.52881525  .00000619  00000-0  59647-4 0  9992,2 55957  70.0000 222.3071 0003059 269.3707  90.7102 14.98331846 60381,6950.187,96.107,574.178,569.926,0.0
55957.0,STARLINK-5884,PAYLOAD,2024-04-11 14:17:37,14.9833506,0.0003031,70.0001,222.1386,268.4173,91.6639,8.2838e-05,8.96e-06,0.0,0 STARLINK-5884,1 55957U 23037AV  24102.59557228  .00000896  00000-0  82838-4 0  9994,2 55957  70.0001 222.1386 0003031 268.4173  91.6639 14.98335060 60057,6950.177,96.107,574.149,569.936,0.0
55957.0,STARLINK-5884,PAYLOAD,2024-04-12 12:43:30,14.98327461,0.0003,70.0011,219.7825,271.5916,88.4899,1.7638e-05,1.17e-06,0.0,0 STARLINK-5884,1 55957U 23037AV  24103.53021760  .00000117  00000-0  17638-4 0  9998,2 55957  70.0011 219.7825 0003000 271.5916  88.4899 14.98327461 60535,6950.201,96.107,574.151,569.981,0.0
55957.0,STARLINK-5884,PAYLOAD,2024-04-12 14:19:38,14.98327849,0.0002996,70.0011,219.6141,271.5519,88.5296,2.0343e-05,1.5e-06,0.0,0 STARLINK-5884,1 55957U 23037AV  24103.59697731  .00000150  00000-0  20343-4 0  9995,2 55957  70.0011 219.6141 0002996 271.5519  88.5296 14.98327849 60203,6950.2,96.107,574.147,569.982,0.0
55957.0,STARLINK-5884,PAYLOAD,2024-04-13 14:21:40,14.98328766,0.0002884,70.001,217.0898,270.7069,89.3759,-6.6262e-05,-8.83e-06,0.0,0 STARLINK-5884,1 55957U 23037AV  24104.59837973 -.00000883  00000-0 -66262-4 0  9995,2 55957  70.0010 217.0898 0002884 270.7069  89.3759 14.98328766 60358,6950.197,96.107,574.066,570.057,0.0
55957.0,STARLINK-5884,PAYLOAD,2024-04-13 17:33:55,14.9833263,0.0003095,70.0013,216.7535,275.7922,84.2884,-4.7072e-05,-6.55e-06,0.0,0 STARLINK-5884,1 55957U 23037AV  24104.73189671 -.00000655  00000-0 -47072-4 0  9991,2 55957  70.0013 216.7535 0003095 275.7922  84.2884 14.98332630 60711,6950.185,96.107,574.201,569.899,0.0
55957.0,STARLINK-5884,PAYLOAD,2024-04-14 12:47:33,14.98291598,0.0003114,70.0015,214.735,266.333,93.7473,0.00074937,8.851e-05,0.0,0 STARLINK-5884,1 55957U 23037AV  24105.53302292  .00008851  00000-0  74937-3 0  9999,2 55957  70.0015 214.7350 0003114 266.3330  93.7473 14.98291598 60836,6950.312,96.109,574.341,570.012,0.0
55957.0,STARLINK-5884,PAYLOAD,2024-04-14 17:35:56,14.98336586,0.0002727,70.0018,214.2313,262.1185,97.9664,9.9039e-05,1.089e-05,0.0,0 STARLINK-5884,1 55957U 23037AV  24105.73328777  .00001089  00000-0  99039-4 0  9994,2 55957  70.0018 214.2313 0002727 262.1185  97.9664 14.98336586 60862,6950.173,96.107,573.933,570.142,0.0
55957.0,STARLINK-5884,PAYLOAD,2024-04-15 12:49:33,14.98329591,0.0002636,70.0022,212.2118,259.4151,100.6711,3.9066e-05,3.73e-06,0.0,0 STARLINK-5884,1 55957U 23037AV  24106.53441223  .00000373  00000-0  39066-4 0  9994,2 55957  70.0022 212.2118 0002636 259.4151 100.6711 14.98329591 60985,6950.194,96.107,573.891,570.227,0.0
55957.0,STARLINK-5884,PAYLOAD,2024-04-15 14:25:41,14.98330412,0.0002623,70.0021,212.0434,258.7817,101.3047,4.8076e-05,4.81e-06,0.0,0 STARLINK-5884,1 55957U 23037AV  24106.60117136  .00000481  00000-0  48076-4 0  9996,2 55957  70.0021 212.0434 0002623 258.7817 101.3047 14.98330412 60658,6950.192,96.107,573.88,570.234,0.0
55957.0,STARLINK-5884,PAYLOAD,2024-04-16 12:51:33,14.9833832,0.0002769,70.0016,209.6859,264.8305,95.2538,-2.1693e-06,-1.19e-06,0.0,0 STARLINK-5884,1 55957U 23037AV  24107.53580540 -.00000119  00000-0 -21693-5 0  9999,2 55957  70.0016 209.6859 0002769 264.8305  95.2538 14.98338320 61132,6950.167,96.106,573.957,570.108,0.0
55957.0,STARLINK-5884,PAYLOAD,2024-04-16 14:27:41,14.98340884,0.0002501,70.0014,209.517,256.7862,103.3018,3.3328e-05,3.05e-06,0.0,0 STARLINK-5884,1 55957U 23037AV  24107.60256223  .00000305  00000-0  33328-4 0  9997,2 55957  70.0014 209.5170 0002501 256.7862 103.3018 14.98340884 60802,6950.159,96.106,573.762,570.286,0.0
55957.0,STARLINK-5884,PAYLOAD,2024-04-16 16:03:49,14.98341498,0.0002444,70.0019,209.3491,259.9939,100.0944,6.6613e-05,7.02e-06,0.0,0 STARLINK-5884,1 55957U 23037AV  24107.66932083  .00000702  00000-0  66613-4 0  9992,2 55957  70.0019 209.3491 0002444 259.9939 100.0944 14.98341498 60812,6950.157,96.106,573.721,570.324,0.0
55957.0,STARLINK-5884,PAYLOAD,2024-04-17 12:53:35,14.98321035,0.0002739,70.0016,207.1612,253.9,106.1857,-0.00011877,-1.509e-05,0.0,0 STARLINK-5884,1 55957U 23037AV  24108.53721739 -.00001509  00000-0 -11877-3 0  9992,2 55957  70.0016 207.1612 0002739 253.9000 106.1857 14.98321035 61287,6950.221,96.108,573.989,570.182,0.0
55957.0,STARLINK-5884,PAYLOAD,2024-04-17 14:29:44,14.98315765,0.0003267,70.0005,206.9917,269.8102,90.2683,-0.00017966,-2.235e-05,0.0,0 STARLINK-5884,1 55957U 23037AV  24108.60398375 -.00002235  00000-0 -17966-3 0  9998,2 55957  70.0005 206.9917 0003267 269.8102  90.2683 14.98315765 60952,6950.237,96.108,574.373,569.831,0.0
55957.0,STARLINK-5884,PAYLOAD,2024-04-17 16:05:52,14.98314445,0.0003768,69.9992,206.8215,280.7963,79.2772,-0.00023987,-2.953e-05,0.0,0 STARLINK-5884,1 55957U 23037AV  24108.67074682 -.00002953  00000-0 -23987-3 0  9994,2 55957  69.9992 206.8215 0003768 280.7963  79.2772 14.98314445 61307,6950.241,96.108,574.725,569.487,0.0
55957.0,STARLINK-5884,PAYLOAD,2024-04-18 11:19:30,14.9831271,0.0003328,69.9995,204.8013,272.0968,87.981,-0.00021743,-2.685e-05,0.0,0 STARLINK-5884,1 55957U 23037AV  24109.47187658 -.00002685  00000-0 -21743-3 0  9991,2 55957  69.9995 204.8013 0003328 272.0968  87.9810 14.98312710 61082,6950.246,96.108,574.424,569.798,0.0
55957.0,STARLINK-5884,PAYLOAD,2024-04-18 16:07:53,14.98318194,0.0002534,70.0029,204.3007,236.8648,123.2268,-6.3765e-05,-8.53e-06,0.0,0 STARLINK-5884,1 55957U 23037AV  24109.67214977 -.00000853  00000-0 -63765-4 0  9994,2 55957  70.0029 204.3007 0002534 236.8648 123.2268 14.98318194 61456,6950.229,96.108,573.856,570.333,0.0
55957.0,STARLINK-5884,PAYLOAD,2024-04-19 12:57:36,14.98333577,0.0002892,70.0019,202.1085,268.128,91.9548,0.0003328,3.88e-05,0.0,0 STARLINK-5884,1 55957U 23037AV  24110.54000855  .00003880  00000-0  33280-3 0  9999,2 55957  70.0019 202.1085 0002892 268.1280  91.9548 14.98333577 61582,6950.182,96.107,574.057,570.037,0.0
55957.0,STARLINK-5884,PAYLOAD,2024-04-19 14:33:44,14.98339763,0.0002423,70.0023,201.9425,250.0707,110.0191,0.00037626,4.4e-05,0.0,0 STARLINK-5884,1 55957U 23037AV  24110.60676268  .00004400  00000-0  37626-3 0  9990,2 55957  70.0023 201.9425 0002423 250.0707 110.0191 14.98339763 61250,6950.163,96.106,573.712,570.344,0.0
55957.0,STARLINK-5884,PAYLOAD,2024-04-19 16:09:51,14.983463,0.000284,70.0018,201.7776,250.0542,110.0311,0.00046207,5.427e-05,0.0,0 STARLINK-5884,1 55957U 23037AV  24110.67351499  .00005427  00000-0  46207-3 0  9998,2 55957  70.0018 201.7776 0002840 250.0542 110.0311 14.98346300 61609,6950.142,96.106,573.981,570.034,0.0
55957.0,STARLINK-5884,PAYLOAD,2024-04-20 12:59:37,14.9834243,0.0003029,70.0018,199.5909,245.5886,114.4957,0.00011064,1.228e-05,0.0,0 STARLINK-5884,1 55957U 23037AV  24111.54140155  .00001228  00000-0  11064-3 0  9998,2 55957  70.0018 199.5909 0003029 245.5886 114.4957 14.98342430 61739,6950.154,96.106,574.125,569.914,0.0
